STARLINK-2404           
1 48093U 21027B   26068.45445489  .00003172  00000+0  11922-3 0  9991
2 48093  53.1593 156.0452 0001212 104.0491 256.0644 15.30185413272627
HAWK-11C                
1 62381U 24247E   26068.51221537  .00009223  00000+0  33290-3 0  9992
2 62381  45.0045 114.8762 0005900 329.7040  30.3502 15.28848020 67743
